STARLINK-4705           
1 53723U 22107Z   25124.24885731 -.00001342  00000+0 -66283-4 0  9994
2 53723  53.2178 202.9002 0000887  85.6419 274.4674 15.08831180147246
STARLINK-4663           
1 53724U 22107AA  25123.93239088 -.00000398  00000+0 -68950-5 0  9992
2 53724  53.2164 204.4706 0001612  80.1236 279.9938 15.08837927147657
STARLINK-4697           
1 53726U 22107AC  25123.93976054 -.00003582  00000+0 -20705-3 0  9997
2 53726  53.2177 204.5165 0001354  74.5420 285.5722 15.08845728147650
STARLINK-4701           
1 53727U 22107AD  25123.61961303 -.00001248  00000+0 -60329-4 0  9998
2 53727  53.2166 206.0718 0001309  85.0262 275.0879 15.08839881147741
STARLINK-4640           
1 53728U 22107AE  25123.94713046  .00001814  00000+0  13205-3 0  9991
2 53728  53.2154 204.5622 0001235  92.3574 267.7560 15.08842964147797
STARLINK-4651           
1 53729U 22107AF  25124.22683754 -.00001885  00000+0 -10042-3 0  9992
2 53729  53.2168 203.4653 0001436  79.9900 280.1254 15.08829006147232
STARLINK-4641           
1 53730U 22107AG  25123.95449796 -.00001354  00000+0 -66962-4 0  9993
2 53730  53.2168 204.6083 0001051  69.2141 290.8964 15.08848228147194
STARLINK-4636           
1 53731U 22107AH  25123.63434937 -.00000899  00000+0 -38350-4 0  9993
2 53731  53.2166 206.1597 0001391  93.5232 266.5919 15.08856962147776
STARLINK-4661           
1 53732U 22107AJ  25123.62794548 -.00000881  00000+0 -37296-4 0  9999
2 53732  53.2171 206.1224 0001480  90.5138 269.6023 15.08831610147741
STARLINK-4574           
1 53733U 22107AK  25123.57548655 -.00001219  00000+0 -58508-4 0  9995
2 53733  53.2165 206.5044 0001436  88.1658 271.9499 15.08830320147762
STARLINK-4616           
1 53734U 22107AL  25123.62698242 -.00000477  00000+0 -11857-4 0  9991
2 53734  53.2175 206.1173 0001478 104.9239 255.1917 15.08839396147773
STARLINK-4618           
1 53735U 22107AM  25123.60395237  .00000869  00000+0  72701-4 0  9996
2 53735  53.2166 215.9620 0001218  88.5635 271.5497 15.08838310147633
STARLINK-4652           
1 53736U 22107AN  25123.57179980 -.00000166  00000+0  76769-5 0  9998
2 53736  53.2169 206.4794 0001374  96.8340 263.2808 15.08834951147767
STARLINK-4646           
1 53737U 22107AP  25123.62979298  .00016284  00000+0  97354-3 0  9993
2 53737  53.2140 215.4198 0002009 341.4068  18.6852 15.11213551147792
