[
  {
    "OBJECT_NAME": "STARLINK-4705",
    "OBJECT_ID": "2022-107Z",
    "EPOCH": "2025-05-04T05:58:21.271584",
    "MEAN_MOTION": 15.0883118,
    "ECCENTRICITY": 8.87e-05,
    "INCLINATION": 53.2178,
    "RA_OF_ASC_NODE": 202.9002,
    "ARG_OF_PERICENTER": 85.6419,
    "MEAN_ANOMALY": 274.4674,
    "EPHEMERIS_TYPE": 0,
    "CLASSIFICATION_TYPE": "U",
    "NORAD_CAT_ID": 53723,
    "ELEMENT_SET_NO": 999,
    "REV_AT_EPOCH": 14724,
    "BSTAR": -6.6283e-05,
    "MEAN_MOTION_DOT": -1.342e-05,
    "MEAN_MOTION_DDOT": 0
  },
  {
    "OBJECT_NAME": "STARLINK-4663",
    "OBJECT_ID": "2022-107AA",
    "EPOCH": "2025-05-03T22:22:38.572032",
    "MEAN_MOTION": 15.08837927,
    "ECCENTRICITY": 0.0001612,
    "INCLINATION": 53.2164,
    "RA_OF_ASC_NODE": 204.4706,
    "ARG_OF_PERICENTER": 80.1236,
    "MEAN_ANOMALY": 279.9938,
    "EPHEMERIS_TYPE": 0,
    "CLASSIFICATION_TYPE": "U",
    "NORAD_CAT_ID": 53724,
    "ELEMENT_SET_NO": 999,
    "REV_AT_EPOCH": 14765,
    "BSTAR": -6.895e-06,
    "MEAN_MOTION_DOT": -3.98e-06,
    "MEAN_MOTION_DDOT": 0
  },
  {
    "OBJECT_NAME": "STARLINK-4697",
    "OBJECT_ID": "2022-107AC",
    "EPOCH": "2025-05-03T22:33:15.310656",
    "MEAN_MOTION": 15.08845728,
    "ECCENTRICITY": 0.0001354,
    "INCLINATION": 53.2177,
    "RA_OF_ASC_NODE": 204.5165,
    "ARG_OF_PERICENTER": 74.542,
    "MEAN_ANOMALY": 285.5722,
    "EPHEMERIS_TYPE": 0,
    "CLASSIFICATION_TYPE": "U",
    "NORAD_CAT_ID": 53726,
    "ELEMENT_SET_NO": 999,
    "REV_AT_EPOCH": 14765,
    "BSTAR": -0.00020705,
    "MEAN_MOTION_DOT": -3.582e-05,
    "MEAN_MOTION_DDOT": 0
  },
  {
    "OBJECT_NAME": "STARLINK-4701",
    "OBJECT_ID": "2022-107AD",
    "EPOCH": "2025-05-03T14:52:14.565792",
    "MEAN_MOTION": 15.08839881,
    "ECCENTRICITY": 0.0001309,
    "INCLINATION": 53.2166,
    "RA_OF_ASC_NODE": 206.0718,
    "ARG_OF_PERICENTER": 85.0262,
    "MEAN_ANOMALY": 275.0879,
    "EPHEMERIS_TYPE": 0,
    "CLASSIFICATION_TYPE": "U",
    "NORAD_CAT_ID": 53727,
    "ELEMENT_SET_NO": 999,
    "REV_AT_EPOCH": 14774,
    "BSTAR": -6.0329e-05,
    "MEAN_MOTION_DOT": -1.248e-05,
    "MEAN_MOTION_DDOT": 0
  },
  {
    "OBJECT_NAME": "STARLINK-4640",
    "OBJECT_ID": "2022-107AE",
    "EPOCH": "2025-05-03T22:43:52.071744",
    "MEAN_MOTION": 15.08842964,
    "ECCENTRICITY": 0.0001235,
    "INCLINATION": 53.2154,
    "RA_OF_ASC_NODE": 204.5622,
    "ARG_OF_PERICENTER": 92.3574,
    "MEAN_ANOMALY": 267.756,
    "EPHEMERIS_TYPE": 0,
    "CLASSIFICATION_TYPE": "U",
    "NORAD_CAT_ID": 53728,
    "ELEMENT_SET_NO": 999,
    "REV_AT_EPOCH": 14779,
    "BSTAR": 0.00013205,
    "MEAN_MOTION_DOT": 1.814e-05,
    "MEAN_MOTION_DDOT": 0
  },
  {
    "OBJECT_NAME": "STARLINK-4651",
    "OBJECT_ID": "2022-107AF",
    "EPOCH": "2025-05-04T05:26:38.763456",
    "MEAN_MOTION": 15.08829006,
    "ECCENTRICITY": 0.0001436,
    "INCLINATION": 53.2168,
    "RA_OF_ASC_NODE": 203.4653,
    "ARG_OF_PERICENTER": 79.99,
    "MEAN_ANOMALY": 280.1254,
    "EPHEMERIS_TYPE": 0,
    "CLASSIFICATION_TYPE": "U",
    "NORAD_CAT_ID": 53729,
    "ELEMENT_SET_NO": 999,
    "REV_AT_EPOCH": 14723,
    "BSTAR": -0.00010042,
    "MEAN_MOTION_DOT": -1.885e-05,
    "MEAN_MOTION_DDOT": 0
  },
  {
    "OBJECT_NAME": "STARLINK-4641",
    "OBJECT_ID": "2022-107AG",
    "EPOCH": "2025-05-03T22:54:28.623744",
    "MEAN_MOTION": 15.08848228,
    "ECCENTRICITY": 0.0001051,
    "INCLINATION": 53.2168,
    "RA_OF_ASC_NODE": 204.6083,
    "ARG_OF_PERICENTER": 69.2141,
    "MEAN_ANOMALY": 290.8964,
    "EPHEMERIS_TYPE": 0,
    "CLASSIFICATION_TYPE": "U",
    "NORAD_CAT_ID": 53730,
    "ELEMENT_SET_NO": 999,
    "REV_AT_EPOCH": 14719,
    "BSTAR": -6.6962e-05,
    "MEAN_MOTION_DOT": -1.354e-05,
    "MEAN_MOTION_DDOT": 0
  },
  {
    "OBJECT_NAME": "STARLINK-4636",
    "OBJECT_ID": "2022-107AH",
    "EPOCH": "2025-05-03T15:13:27.785568",
    "MEAN_MOTION": 15.08856962,
    "ECCENTRICITY": 0.0001391,
    "INCLINATION": 53.2166,
    "RA_OF_ASC_NODE": 206.1597,
    "ARG_OF_PERICENTER": 93.5232,
    "MEAN_ANOMALY": 266.5919,
    "EPHEMERIS_TYPE": 0,
    "CLASSIFICATION_TYPE": "U",
    "NORAD_CAT_ID": 53731,
    "ELEMENT_SET_NO": 999,
    "REV_AT_EPOCH": 14777,
    "BSTAR": -3.835e-05,
    "MEAN_MOTION_DOT": -8.99e-06,
    "MEAN_MOTION_DDOT": 0
  },
  {
    "OBJECT_NAME": "STARLINK-4661",
    "OBJECT_ID": "2022-107AJ",
    "EPOCH": "2025-05-03T15:04:14.489472",
    "MEAN_MOTION": 15.0883161,
    "ECCENTRICITY": 0.000148,
    "INCLINATION": 53.2171,
    "RA_OF_ASC_NODE": 206.1224,
    "ARG_OF_PERICENTER": 90.5138,
    "MEAN_ANOMALY": 269.6023,
    "EPHEMERIS_TYPE": 0,
    "CLASSIFICATION_TYPE": "U",
    "NORAD_CAT_ID": 53732,
    "ELEMENT_SET_NO": 999,
    "REV_AT_EPOCH": 14774,
    "BSTAR": -3.7296e-05,
    "MEAN_MOTION_DOT": -8.81e-06,
    "MEAN_MOTION_DDOT": 0
  },
  {
    "OBJECT_NAME": "STARLINK-4574",
    "OBJECT_ID": "2022-107AK",
    "EPOCH": "2025-05-03T13:48:42.037920",
    "MEAN_MOTION": 15.0883032,
    "ECCENTRICITY": 0.0001436,
    "INCLINATION": 53.2165,
    "RA_OF_ASC_NODE": 206.5044,
    "ARG_OF_PERICENTER": 88.1658,
    "MEAN_ANOMALY": 271.9499,
    "EPHEMERIS_TYPE": 0,
    "CLASSIFICATION_TYPE": "U",
    "NORAD_CAT_ID": 53733,
    "ELEMENT_SET_NO": 999,
    "REV_AT_EPOCH": 14776,
    "BSTAR": -5.8508e-05,
    "MEAN_MOTION_DOT": -1.219e-05,
    "MEAN_MOTION_DDOT": 0
  },
  {
    "OBJECT_NAME": "STARLINK-4616",
    "OBJECT_ID": "2022-107AL",
    "EPOCH": "2025-05-03T15:02:51.281088",
    "MEAN_MOTION": 15.08839396,
    "ECCENTRICITY": 0.0001478,
    "INCLINATION": 53.2175,
    "RA_OF_ASC_NODE": 206.1173,
    "ARG_OF_PERICENTER": 104.9239,
    "MEAN_ANOMALY": 255.1917,
    "EPHEMERIS_TYPE": 0,
    "CLASSIFICATION_TYPE": "U",
    "NORAD_CAT_ID": 53734,
    "ELEMENT_SET_NO": 999,
    "REV_AT_EPOCH": 14777,
    "BSTAR": -1.1857e-05,
    "MEAN_MOTION_DOT": -4.77e-06,
    "MEAN_MOTION_DDOT": 0
  },
  {
    "OBJECT_NAME": "STARLINK-4618",
    "OBJECT_ID": "2022-107AM",
    "EPOCH": "2025-05-03T14:29:41.484768",
    "MEAN_MOTION": 15.0883831,
    "ECCENTRICITY": 0.0001218,
    "INCLINATION": 53.2166,
    "RA_OF_ASC_NODE": 215.962,
    "ARG_OF_PERICENTER": 88.5635,
    "MEAN_ANOMALY": 271.5497,
    "EPHEMERIS_TYPE": 0,
    "CLASSIFICATION_TYPE": "U",
    "NORAD_CAT_ID": 53735,
    "ELEMENT_SET_NO": 999,
    "REV_AT_EPOCH": 14763,
    "BSTAR": 7.2701e-05,
    "MEAN_MOTION_DOT": 8.69e-06,
    "MEAN_MOTION_DDOT": 0
  },
  {
    "OBJECT_NAME": "STARLINK-4652",
    "OBJECT_ID": "2022-107AN",
    "EPOCH": "2025-05-03T13:43:23.502720",
    "MEAN_MOTION": 15.08834951,
    "ECCENTRICITY": 0.0001374,
    "INCLINATION": 53.2169,
    "RA_OF_ASC_NODE": 206.4794,
    "ARG_OF_PERICENTER": 96.834,
    "MEAN_ANOMALY": 263.2808,
    "EPHEMERIS_TYPE": 0,
    "CLASSIFICATION_TYPE": "U",
    "NORAD_CAT_ID": 53736,
    "ELEMENT_SET_NO": 999,
    "REV_AT_EPOCH": 14776,
    "BSTAR": 7.6769e-06,
    "MEAN_MOTION_DOT": -1.66e-06,
    "MEAN_MOTION_DDOT": 0
  },
  {
    "OBJECT_NAME": "STARLINK-4646",
    "OBJECT_ID": "2022-107AP",
    "EPOCH": "2025-05-03T15:06:54.113472",
    "MEAN_MOTION": 15.11213551,
    "ECCENTRICITY": 0.0002009,
    "INCLINATION": 53.214,
    "RA_OF_ASC_NODE": 215.4198,
    "ARG_OF_PERICENTER": 341.4068,
    "MEAN_ANOMALY": 18.6852,
    "EPHEMERIS_TYPE": 0,
    "CLASSIFICATION_TYPE": "U",
    "NORAD_CAT_ID": 53737,
    "ELEMENT_SET_NO": 999,
    "REV_AT_EPOCH": 14779,
    "BSTAR": 0.00097354,
    "MEAN_MOTION_DOT": 0.00016284,
    "MEAN_MOTION_DDOT": 0
  }
]